STARLETTE               
1 07646U 75010A   26095.87069449 -.00000146  00000+0 -28181-5 0  9992
2 07646  49.8256  30.0363 0205649 184.1355 175.7843 13.82349323584535
LAGEOS 1                
1 08820U 76039A   26095.73705431 -.00000003  00000+0  00000+0 0  9997
2 08820 109.8107 154.5430 0044675 317.7924  59.2154  6.38664840908511
AJISAI (EGS)            
1 16908U 86061A   26095.85339552 -.00000083  00000+0  10259-3 0  9998
2 16908  50.0122   9.8199 0011374 356.8991  46.2434 12.44515692471384
COSMOS 1989 (ETALON 1)  
1 19751U 89001C   26095.75322594  .00000003  00000+0  00000+0 0  9991
2 19751  64.9051  74.6712 0023399 217.6578 324.4516  2.13156108289820
COSMOS 2024 (ETALON 2)  
1 20026U 89039C   26095.08443973 -.00000041  00000+0  00000+0 0  9993
2 20026  64.9786 313.0551 0020490 213.1143 320.7218  2.13204691286940
LAGEOS 2                
1 22195U 92070B   26079.09060082 -.00000009  00000+0  00000+0 0  9994
2 22195  52.6746 322.9737 0137714 148.3601   4.1736  6.47293426789659
STELLA                  
1 22824U 93061B   26095.86511900 -.00000016  00000+0  11853-4 0  9998
2 22824  98.7786 159.8362 0007486  88.1626  23.9664 14.27468511694452
LARETS                  
1 27944U 03042F   26095.86644596  .00000098  00000+0  28377-4 0  9992
2 27944  98.4067 256.5847 0011043 261.0454  98.9498 14.63855933202783
LARES                   
1 38077U 12006A   26095.84218195 -.00000052  00000+0 -82254-4 0  9997
2 38077  69.4914  55.8148 0006560 117.9610 242.2081 12.54932122647998
LARES-2                 
1 53105U 22080A   26090.22335241 -.00000019  00000+0  00000+0 0  9994
2 53105  70.1721 332.0673 0005952   3.9036 356.1767  6.38965054 86689
