[{"OBJECT_NAME":"STARLETTE","OBJECT_ID":"1975-010A","EPOCH":"2026-04-05T20:53:48.003936","MEAN_MOTION":13.82349323,"ECCENTRICITY":0.0205649,"INCLINATION":49.8256,"RA_OF_ASC_NODE":30.0363,"ARG_OF_PERICENTER":184.1355,"MEAN_ANOMALY":175.7843,"EPHEMERIS_TYPE":0,"CLASSIFICATION_TYPE":"U","NORAD_CAT_ID":7646,"ELEMENT_SET_NO":999,"REV_AT_EPOCH":58453,"BSTAR":-2.8181e-6,"MEAN_MOTION_DOT":-1.46e-6,"MEAN_MOTION_DDOT":0},{"OBJECT_NAME":"LAGEOS 1","OBJECT_ID":"1976-039A","EPOCH":"2026-04-05T17:41:21.492384","MEAN_MOTION":6.3866484,"ECCENTRICITY":0.0044675,"INCLINATION":109.8107,"RA_OF_ASC_NODE":154.543,"ARG_OF_PERICENTER":317.7924,"MEAN_ANOMALY":59.2154,"EPHEMERIS_TYPE":0,"CLASSIFICATION_TYPE":"U","NORAD_CAT_ID":8820,"ELEMENT_SET_NO":999,"REV_AT_EPOCH":90851,"BSTAR":0,"MEAN_MOTION_DOT":-3.0e-8,"MEAN_MOTION_DDOT":0},{"OBJECT_NAME":"AJISAI (EGS)","OBJECT_ID":"1986-061A","EPOCH":"2026-04-05T20:28:53.372928","MEAN_MOTION":12.44515692,"ECCENTRICITY":0.0011374,"INCLINATION":50.0122,"RA_OF_ASC_NODE":9.8199,"ARG_OF_PERICENTER":356.8991,"MEAN_ANOMALY":46.2434,"EPHEMERIS_TYPE":0,"CLASSIFICATION_TYPE":"U","NORAD_CAT_ID":16908,"ELEMENT_SET_NO":999,"REV_AT_EPOCH":47138,"BSTAR":0.00010259,"MEAN_MOTION_DOT":-8.3e-7,"MEAN_MOTION_DDOT":0},{"OBJECT_NAME":"COSMOS 1989 (ETALON 1)","OBJECT_ID":"1989-001C","EPOCH":"2026-04-05T18:04:38.721216","MEAN_MOTION":2.13156108,"ECCENTRICITY":0.0023399,"INCLINATION":64.9051,"RA_OF_ASC_NODE":74.6712,"ARG_OF_PERICENTER":217.6578,"MEAN_ANOMALY":324.4516,"EPHEMERIS_TYPE":0,"CLASSIFICATION_TYPE":"U","NORAD_CAT_ID":19751,"ELEMENT_SET_NO":999,"REV_AT_EPOCH":28982,"BSTAR":0,"MEAN_MOTION_DOT":3.0e-8,"MEAN_MOTION_DDOT":0},{"OBJECT_NAME":"COSMOS 2024 (ETALON 2)","OBJECT_ID":"1989-039C","EPOCH":"2026-04-05T02:01:35.592672","MEAN_MOTION":2.13204691,"ECCENTRICITY":0.00204903,"INCLINATION":64.9786,"RA_OF_ASC_NODE":313.0551,"ARG_OF_PERICENTER":213.1143,"MEAN_ANOMALY":320.7218,"EPHEMERIS_TYPE":0,"CLASSIFICATION_TYPE":"U","NORAD_CAT_ID":20026,"ELEMENT_SET_NO":999,"REV_AT_EPOCH":28694,"BSTAR":0,"MEAN_MOTION_DOT":-4.1e-7,"MEAN_MOTION_DDOT":0},{"OBJECT_NAME":"LAGEOS 2","OBJECT_ID":"1992-070B","EPOCH":"2026-03-20T02:10:27.910848","MEAN_MOTION":6.47293426,"ECCENTRICITY":0.0137714,"INCLINATION":52.6746,"RA_OF_ASC_NODE":322.9737,"ARG_OF_PERICENTER":148.3601,"MEAN_ANOMALY":4.1736,"EPHEMERIS_TYPE":0,"CLASSIFICATION_TYPE":"U","NORAD_CAT_ID":22195,"ELEMENT_SET_NO":999,"REV_AT_EPOCH":78965,"BSTAR":0,"MEAN_MOTION_DOT":-9.0e-8,"MEAN_MOTION_DDOT":0},{"OBJECT_NAME":"STELLA","OBJECT_ID":"1993-061B","EPOCH":"2026-04-05T20:45:46.281600","MEAN_MOTION":14.27468511,"ECCENTRICITY":0.0007486,"INCLINATION":98.7786,"RA_OF_ASC_NODE":159.8362,"ARG_OF_PERICENTER":88.1626,"MEAN_ANOMALY":23.9664,"EPHEMERIS_TYPE":0,"CLASSIFICATION_TYPE":"U","NORAD_CAT_ID":22824,"ELEMENT_SET_NO":999,"REV_AT_EPOCH":69445,"BSTAR":1.1853e-5,"MEAN_MOTION_DOT":-1.6e-7,"MEAN_MOTION_DDOT":0},{"OBJECT_NAME":"LARETS","OBJECT_ID":"2003-042F","EPOCH":"2026-04-05T20:47:40.930944","MEAN_MOTION":14.63855933,"ECCENTRICITY":0.0011043,"INCLINATION":98.4067,"RA_OF_ASC_NODE":256.5847,"ARG_OF_PERICENTER":261.0454,"MEAN_ANOMALY":98.9498,"EPHEMERIS_TYPE":0,"CLASSIFICATION_TYPE":"U","NORAD_CAT_ID":27944,"ELEMENT_SET_NO":999,"REV_AT_EPOCH":20278,"BSTAR":2.8377e-5,"MEAN_MOTION_DOT":9.8e-7,"MEAN_MOTION_DDOT":0},{"OBJECT_NAME":"LARES","OBJECT_ID":"2012-006A","EPOCH":"2026-04-05T20:12:44.520480","MEAN_MOTION":12.54932122,"ECCENTRICITY":0.000656,"INCLINATION":69.4914,"RA_OF_ASC_NODE":55.8148,"ARG_OF_PERICENTER":117.961,"MEAN_ANOMALY":242.2081,"EPHEMERIS_TYPE":0,"CLASSIFICATION_TYPE":"U","NORAD_CAT_ID":38077,"ELEMENT_SET_NO":999,"REV_AT_EPOCH":64799,"BSTAR":-8.2254e-5,"MEAN_MOTION_DOT":-5.2e-7,"MEAN_MOTION_DDOT":0},{"OBJECT_NAME":"LARES-2","OBJECT_ID":"2022-080A","EPOCH":"2026-03-31T05:21:37.648224","MEAN_MOTION":6.38965054,"ECCENTRICITY":0.00059524,"INCLINATION":70.1721,"RA_OF_ASC_NODE":332.0673,"ARG_OF_PERICENTER":3.9036,"MEAN_ANOMALY":356.1767,"EPHEMERIS_TYPE":0,"CLASSIFICATION_TYPE":"U","NORAD_CAT_ID":53105,"ELEMENT_SET_NO":999,"REV_AT_EPOCH":8668,"BSTAR":0,"MEAN_MOTION_DOT":-1.9e-7,"MEAN_MOTION_DDOT":0}]
